start=new Date('2022-03-08T00:00:00.000Z').valueOf();
sats=[{"CLASSIFICATION_TYPE":"U","INCLINATION":"53.2177","OBJECT_NAME":"STARLINK-3305","MEAN_ELEMENT_THEORY":"SGP4","CENTER_NAME":"EARTH","BSTAR":"-0.02311900000000","RCS_SIZE":"LARGE","EPHEMERIS_TYPE":"0","TLE_LINE2":"2 50166  53.2177 337.0959 0001547  45.2721 284.4203 15.31390490  3640","ARG_OF_PERICENTER":"45.2721","MEAN_ANOMALY":"284.4203","PERIOD":"94.032","MEAN_MOTION_DDOT":"0.0000000000000","RA_OF_ASC_NODE":"337.0959","OBJECT_TYPE":"PAYLOAD","FILE":"3349821","PERIAPSIS":"470.605","REV_AT_EPOCH":"364","NORAD_CAT_ID":"50166","DECAY_DATE":null,"MEAN_MOTION_DOT":"-0.00660041","OBJECT_ID":"2021-125L","SITE":"AFWTR","ELEMENT_SET_NO":"999","MEAN_MOTION":"15.31390490","REF_FRAME":"TEME","SEMIMAJOR_AXIS":"6849.800","LAUNCH_DATE":"2021-12-18","APOAPSIS":"472.724","TIME_SYSTEM":"UTC","EPOCH":"2022-03-07T22:00:00.999936","ECCENTRICITY":"0.00015470","TLE_LINE1":"1 50166U 21125L   22066.91667824 -.00660041  00000-0 -23119-1 0  9994","GP_ID":"198190203","COUNTRY_CODE":"US"},{"FILE":"3349821","RA_OF_ASC_NODE":"345.7502","OBJECT_TYPE":"PAYLOAD","MEAN_MOTION_DDOT":"0.0000000000000","PERIOD":"95.438","MEAN_ANOMALY":"25.1860","ARG_OF_PERICENTER":"44.4801","TLE_LINE2":"2 50167  53.2179 345.7502 0001893  44.4801  25.1860 15.08828403  3606","EPHEMERIS_TYPE":"0","RCS_SIZE":"LARGE","BSTAR":"-0.00130450000000","MEAN_ELEMENT_THEORY":"SGP4","CENTER_NAME":"EARTH","INCLINATION":"53.2179","OBJECT_NAME":"STARLINK-3271","CLASSIFICATION_TYPE":"U","TLE_LINE1":"1 50167U 21125M   22066.91667824 -.00020983  00000-0 -13045-2 0  9998","COUNTRY_CODE":"US","GP_ID":"198190455","ECCENTRICITY":"0.00018930","EPOCH":"2022-03-07T22:00:00.999936","TIME_SYSTEM":"UTC","APOAPSIS":"541.090","LAUNCH_DATE":"2021-12-18","REF_FRAME":"TEME","SEMIMAJOR_AXIS":"6917.916","ELEMENT_SET_NO":"999","MEAN_MOTION":"15.08828403","SITE":"AFWTR","MEAN_MOTION_DOT":"-0.00020983","OBJECT_ID":"2021-125M","DECAY_DATE":null,"NORAD_CAT_ID":"50167","REV_AT_EPOCH":"360","PERIAPSIS":"538.471"},{"FILE":"3349821","OBJECT_TYPE":"PAYLOAD","RA_OF_ASC_NODE":"337.0956","MEAN_MOTION_DDOT":"0.0000000000000","PERIOD":"94.025","MEAN_ANOMALY":"298.8553","ARG_OF_PERICENTER":"44.1413","TLE_LINE2":"2 50168  53.2177 337.0956 0001564  44.1413 298.8553 15.31505865  3645","EPHEMERIS_TYPE":"0","RCS_SIZE":"LARGE","BSTAR":"-0.02305200000000","MEAN_ELEMENT_THEORY":"SGP4","CENTER_NAME":"EARTH","INCLINATION":"53.2177","OBJECT_NAME":"STARLINK-3296","CLASSIFICATION_TYPE":"U","TLE_LINE1":"1 50168U 21125N   22066.91667824 -.00660484  00000-0 -23052-1 0  9993","COUNTRY_CODE":"US","GP_ID":"198191205","ECCENTRICITY":"0.00015640","EPOCH":"2022-03-07T22:00:00.999936","TIME_SYSTEM":"UTC","APOAPSIS":"472.392","LAUNCH_DATE":"2021-12-18","SEMIMAJOR_AXIS":"6849.456","REF_FRAME":"TEME","MEAN_MOTION":"15.31505865","ELEMENT_SET_NO":"999","SITE":"AFWTR","MEAN_MOTION_DOT":"-0.00660484","OBJECT_ID":"2021-125N","DECAY_DATE":null,"NORAD_CAT_ID":"50168","PERIAPSIS":"470.250","REV_AT_EPOCH":"364"},{"APOAPSIS":"469.661","TIME_SYSTEM":"UTC","COUNTRY_CODE":"US","TLE_LINE1":"1 50169U 21125P   22066.91667824 -.00661056  00000-0 -22414-1 0  9991","GP_ID":"198189953","ECCENTRICITY":"0.00015850","EPOCH":"2022-03-07T22:00:00.999936","NORAD_CAT_ID":"50169","DECAY_DATE":null,"REV_AT_EPOCH":"364","PERIAPSIS":"467.490","ELEMENT_SET_NO":"999","MEAN_MOTION":"15.32427029","SITE":"AFWTR","LAUNCH_DATE":"2021-12-18","REF_FRAME":"TEME","SEMIMAJOR_AXIS":"6846.711","OBJECT_ID":"2021-125P","MEAN_MOTION_DOT":"-0.00661056","ARG_OF_PERICENTER":"43.3553","PERIOD":"93.969","MEAN_ANOMALY":"44.8494","FILE":"3349821","MEAN_MOTION_DDOT":"0.0000000000000","RA_OF_ASC_NODE":"337.0909","OBJECT_TYPE":"PAYLOAD","MEAN_ELEMENT_THEORY":"SGP4","CENTER_NAME":"EARTH","OBJECT_NAME":"STARLINK-3301","INCLINATION":"53.2175","CLASSIFICATION_TYPE":"U","TLE_LINE2":"2 50169  53.2175 337.0909 0001585  43.3553  44.8494 15.32427029  3640","BSTAR":"-0.02241400000000","EPHEMERIS_TYPE":"0","RCS_SIZE":"LARGE"},{"ARG_OF_PERICENTER":"57.1169","MEAN_ANOMALY":"312.4637","PERIOD":"94.019","FILE":"3349821","MEAN_MOTION_DDOT":"0.0000000000000","RA_OF_ASC_NODE":"337.0957","OBJECT_TYPE":"PAYLOAD","INCLINATION":"53.2173","OBJECT_NAME":"STARLINK-3245","MEAN_ELEMENT_THEORY":"SGP4","CENTER_NAME":"EARTH","CLASSIFICATION_TYPE":"U","TLE_LINE2":"2 50170  53.2173 337.0957 0001453  57.1169 312.4637 15.31600599  3639","BSTAR":"-0.01659500000000","RCS_SIZE":"LARGE","EPHEMERIS_TYPE":"0","APOAPSIS":"472.034","TIME_SYSTEM":"UTC","COUNTRY_CODE":"US","TLE_LINE1":"1 50170U 21125Q   22066.91667824 -.00481980  00000-0 -16595-1 0  9992","GP_ID":"198189704","EPOCH":"2022-03-07T22:00:00.999936","ECCENTRICITY":"0.00014530","NORAD_CAT_ID":"50170","DECAY_DATE":null,"REV_AT_EPOCH":"363","PERIAPSIS":"470.043","SITE":"AFWTR","ELEMENT_SET_NO":"999","MEAN_MOTION":"15.31600599","REF_FRAME":"TEME","SEMIMAJOR_AXIS":"6849.173","LAUNCH_DATE":"2021-12-18","OBJECT_ID":"2021-125Q","MEAN_MOTION_DOT":"-0.00481980"},{"TIME_SYSTEM":"UTC","APOAPSIS":"473.151","EPOCH":"2022-03-07T22:00:00.999936","ECCENTRICITY":"0.00016680","GP_ID":"198190955","TLE_LINE1":"1 50171U 21125R   22066.91667824 -.00659745  00000-0 -23191-1 0  9999","COUNTRY_CODE":"US","PERIAPSIS":"470.866","REV_AT_EPOCH":"364","DECAY_DATE":null,"NORAD_CAT_ID":"50171","OBJECT_ID":"2021-125R","MEAN_MOTION_DOT":"-0.00659745","REF_FRAME":"TEME","SEMIMAJOR_AXIS":"6850.144","LAUNCH_DATE":"2021-12-18","SITE":"AFWTR","MEAN_MOTION":"15.31275181","ELEMENT_SET_NO":"999","MEAN_ANOMALY":"273.7567","PERIOD":"94.039","ARG_OF_PERICENTER":"42.5975","RA_OF_ASC_NODE":"337.0961","OBJECT_TYPE":"PAYLOAD","MEAN_MOTION_DDOT":"0.0000000000000","FILE":"3349821","CLASSIFICATION_TYPE":"U","INCLINATION":"53.2176","OBJECT_NAME":"STARLINK-3286","CENTER_NAME":"EARTH","MEAN_ELEMENT_THEORY":"SGP4","RCS_SIZE":"LARGE","EPHEMERIS_TYPE":"0","BSTAR":"-0.02319100000000","TLE_LINE2":"2 50171  53.2176 337.0961 0001668  42.5975 273.7567 15.31275181  3646"},{"MEAN_MOTION_DDOT":"0.0000000000000","RA_OF_ASC_NODE":"337.0939","OBJECT_TYPE":"PAYLOAD","FILE":"3349821","ARG_OF_PERICENTER":"34.0342","MEAN_ANOMALY":"1.8387","PERIOD":"93.997","BSTAR":"-0.02276400000000","RCS_SIZE":"LARGE","EPHEMERIS_TYPE":"0","TLE_LINE2":"2 50172  53.2177 337.0939 0001798  34.0342   1.8387 15.31966953  3645","CLASSIFICATION_TYPE":"U","OBJECT_NAME":"STARLINK-3287","INCLINATION":"53.2177","CENTER_NAME":"EARTH","MEAN_ELEMENT_THEORY":"SGP4","EPOCH":"2022-03-07T22:00:00.999936","ECCENTRICITY":"0.00017980","GP_ID":"198190706","TLE_LINE1":"1 50172U 21125S   22066.91667824 -.00661692  00000-0 -22764-1 0  9999","COUNTRY_CODE":"US","APOAPSIS":"471.178","TIME_SYSTEM":"UTC","MEAN_MOTION_DOT":"-0.00661692","OBJECT_ID":"2021-125S","SITE":"AFWTR","ELEMENT_SET_NO":"999","MEAN_MOTION":"15.31966953","SEMIMAJOR_AXIS":"6848.081","REF_FRAME":"TEME","LAUNCH_DATE":"2021-12-18","REV_AT_EPOCH":"364","PERIAPSIS":"468.715","NORAD_CAT_ID":"50172","DECAY_DATE":null},{"CLASSIFICATION_TYPE":"U","OBJECT_NAME":"STARLINK-3289","INCLINATION":"53.2174","MEAN_ELEMENT_THEORY":"SGP4","CENTER_NAME":"EARTH","BSTAR":"-0.00542410000000","RCS_SIZE":"LARGE","EPHEMERIS_TYPE":"0","TLE_LINE2":"2 50173  53.2174 335.6451 0004749 282.4438 169.2448 15.50933240  3663","ARG_OF_PERICENTER":"282.4438","MEAN_ANOMALY":"169.2448","PERIOD":"92.847","MEAN_MOTION_DDOT":"0.0000000000000","OBJECT_TYPE":"PAYLOAD","RA_OF_ASC_NODE":"335.6451","FILE":"3349821","REV_AT_EPOCH":"366","PERIAPSIS":"410.776","NORAD_CAT_ID":"50173","DECAY_DATE":null,"OBJECT_ID":"2021-125T","MEAN_MOTION_DOT":"-0.00307999","SITE":"AFWTR","ELEMENT_SET_NO":"999","MEAN_MOTION":"15.50933240","SEMIMAJOR_AXIS":"6792.137","REF_FRAME":"TEME","LAUNCH_DATE":"2021-12-18","APOAPSIS":"417.228","TIME_SYSTEM":"UTC","EPOCH":"2022-03-07T22:00:00.999936","ECCENTRICITY":"0.00047490","TLE_LINE1":"1 50173U 21125T   22066.91667824 -.00307999  00000-0 -54241-2 0  9993","GP_ID":"198189454","COUNTRY_CODE":"US"},{"ARG_OF_PERICENTER":"41.9512","MEAN_ANOMALY":"33.2216","PERIOD":"93.976","MEAN_MOTION_DDOT":"0.0000000000000","OBJECT_TYPE":"PAYLOAD","RA_OF_ASC_NODE":"337.0918","FILE":"3349821","CLASSIFICATION_TYPE":"U","OBJECT_NAME":"STARLINK-3292","INCLINATION":"53.2175","CENTER_NAME":"EARTH","MEAN_ELEMENT_THEORY":"SGP4","BSTAR":"-0.02250300000000","RCS_SIZE":"MEDIUM","EPHEMERIS_TYPE":"0","TLE_LINE2":"2 50174  53.2175 337.0918 0001601  41.9512  33.2216 15.32312049  3643","APOAPSIS":"470.014","TIME_SYSTEM":"UTC","EPOCH":"2022-03-07T22:00:00.999936","ECCENTRICITY":"0.00016010","GP_ID":"198190204","TLE_LINE1":"1 50174U 21125U   22066.91667824 -.00661264  00000-0 -22503-1 0  9997","COUNTRY_CODE":"US","PERIAPSIS":"467.822","REV_AT_EPOCH":"364","NORAD_CAT_ID":"50174","DECAY_DATE":null,"MEAN_MOTION_DOT":"-0.00661264","OBJECT_ID":"2021-125U","SITE":"AFWTR","MEAN_MOTION":"15.32312049","ELEMENT_SET_NO":"999","SEMIMAJOR_AXIS":"6847.053","REF_FRAME":"TEME","LAUNCH_DATE":"2021-12-18"},{"RA_OF_ASC_NODE":"337.0953","OBJECT_TYPE":"PAYLOAD","MEAN_MOTION_DDOT":"0.0000000000000","FILE":"3349821","MEAN_ANOMALY":"315.1978","PERIOD":"94.018","ARG_OF_PERICENTER":"41.0689","RCS_SIZE":"LARGE","EPHEMERIS_TYPE":"0","BSTAR":"-0.02298300000000","TLE_LINE2":"2 50175  53.2177 337.0953 0001611  41.0689 315.1978 15.31621208  3648","CLASSIFICATION_TYPE":"U","INCLINATION":"53.2177","OBJECT_NAME":"STARLINK-3291","MEAN_ELEMENT_THEORY":"SGP4","CENTER_NAME":"EARTH","EPOCH":"2022-03-07T22:00:00.999936","ECCENTRICITY":"0.00016110","GP_ID":"198190456","TLE_LINE1":"1 50175U 21125V   22066.91667824 -.00660873  00000-0 -22983-1 0  9995","COUNTRY_CODE":"US","TIME_SYSTEM":"UTC","APOAPSIS":"472.080","MEAN_MOTION_DOT":"-0.00660873","OBJECT_ID":"2021-125V","SEMIMAJOR_AXIS":"6849.112","REF_FRAME":"TEME","LAUNCH_DATE":"2021-12-18","SITE":"AFWTR","ELEMENT_SET_NO":"999","MEAN_MOTION":"15.31621208","PERIAPSIS":"469.873","REV_AT_EPOCH":"364","DECAY_DATE":null,"NORAD_CAT_ID":"50175"}];
